GLOBALSTAR M096         
1 39075U 13005D   24294.89573978 -.00000070  00000+0  18838-3 0  9998
2 39075  52.0064 239.0153 0000953  69.5572 290.5397 12.62271819541078
GLOBALSTAR M078         
1 39076U 13005E   24294.55226682 -.00000006  00000+0  54583-3 0  9995
2 39076  51.9885 324.8961 0001115  29.7861 330.3069 12.62276717539650
GLOBALSTAR M095         
1 39077U 13005F   24294.49989991 -.00000072  00000+0  17882-3 0  9992
2 39077  51.9811 322.3743 0000926  61.6916 298.4043 12.62266553539503
GLOBALSTAR M087         
1 52888U 22064A   24294.71716346 -.00000086  00000+0  80651-4 0  9999
2 52888  51.9738 130.6582 0008882 328.0312  32.0049 13.37590544114326
